OPTICUBE 04             
1 41851U 16067D   19149.82593896  .00000512  00000-0  49957-4 0  9999
2 41851  97.9153 247.1987 0010672  91.6942 268.5501 14.96802457138948
AEROCUBE 8D             
1 41852U 16067E   19149.89432102  .00000498  00000-0  48858-4 0  9991
2 41852  97.9165 247.0930 0011428  91.5521 268.7009 14.96707375138938
AEROCUBE 8C             
1 41853U 16067F   19150.18416589 -.00000286  00000-0 -19743-4 0  9995
2 41853  97.9158 247.3245 0011326  91.3730 268.8788 14.96668325138970
PROMETHEUS 2-1          
1 41854U 16067G   19149.88695133  .00000888  00000-0  82614-4 0  9998
2 41854  97.9169 247.1487 0012106  92.8819 267.3788 14.96880187138932
PROMETHEUS 2-3          
1 41855U 16067H   19150.15674018  .00000828  00000-0  77379-4 0  9996
2 41855  97.9173 247.4368 0012316  92.2270 268.0361 14.96886197138973
INS-1B                  
1 41954U 17008G   19149.86259326  .00001045  00000-0  46191-4 0  9999
2 41954  97.4009 215.1639 0008417 205.4805 154.6019 15.23895056126789
BGUSAT                  
1 41999U 17008BD  19149.74348502  .00001940  00000-0  78180-4 0  9997
2 41999  97.4081 217.3286 0006971 219.6773 140.3956 15.26031692126259
DIDO-2                  
1 42000U 17008BE  19150.17948196  .00000862  00000-0  38664-4 0  9990
2 42000  97.4021 216.0208 0007292 224.7806 135.2844 15.23861581126230
PEASSS                  
1 42015U 17008BV  19150.15547514  .00000899  00000-0  39093-4 0  9990
2 42015  97.4029 216.9224 0005058 228.0328 132.0479 15.24814613126778
AL-FARABI 1             
1 42016U 17008BW  19150.16233894  .00001141  00000-0  47965-4 0  9993
2 42016  97.4044 217.4469 0004951 226.5035 133.5792 15.25435377126920
NAYIF-1 (EO-88)         
1 42017U 17008BX  19150.15027631  .00001164  00000-0  48832-4 0  9992
2 42017  97.4040 217.4447 0004910 226.5402 133.5428 15.25467889126947
PHOENIX                 
1 42706U 98067LP  19128.42254485  .08245211  12410-4  57150-3 0  9990
2 42706  51.5998 109.6560 0003143 270.9046 228.4560 16.40380041113340
ALTAIR PATHFINDER       
1 42711U 98067LS  19150.05298900  .00037638  00000-0  20607-3 0  9999
2 42711  51.6362  31.5458 0003269  88.8752 271.2623 15.79435302115980
SHARC                   
1 42712U 98067LT  19123.64217769  .08981558  12375-4  84912-3 0  9997
2 42712  51.6192 152.4129 0003348 312.8737 146.7300 16.37776182112255
ZA-AEROSAT              
1 42713U 98067LU  19149.93202991  .01788218  11974-4  59871-3 0  9990
2 42713  51.6189   2.4169 0011384 271.3703  88.6013 16.24797251116346
NJUST-1                 
1 42722U 98067MB  19150.03802896  .00116764  16580-4  29112-3 0  9996
2 42722  51.6335  12.9017 0006174 159.6103 349.6349 15.95589580115296
NSIGHT                  
1 42726U 98067MF  19150.11846274  .00020227  00000-0  16467-3 0  9990
2 42726  51.6376  48.7773 0005929 101.4320 258.7343 15.70630893114744
UCLSAT                  
1 42765U 17036A   19150.15133163  .00000896  00000-0  41395-4 0  9999
2 42765  97.3523 208.5775 0009934 303.3684  56.6602 15.22695368107494
LITUANICASAT-2          
1 42768U 17036D   19150.13059885  .00001495  00000-0  66984-4 0  9995
2 42768  97.3559 208.1489 0013398 291.1468  68.8337 15.22713064107334
AALTO-1                 
1 42775U 17036L   19149.73274358  .00000685  00000-0  33654-4 0  9999
2 42775  97.3510 206.9631 0012375 293.2512  66.7421 15.21304032107174
URSA MAIOR              
1 42776U 17036M   19150.15560495  .00000632  00000-0  31164-4 0  9994
2 42776  97.3518 207.5171 0012184 291.5409  68.4528 15.21433478107245
COMPASS 2               
1 42777U 17036N   19149.69025180  .00001370  00000-0  61463-4 0  9994
2 42777  97.3557 208.1751 0010887 294.9549  65.0557 15.22824778107221
DIAMOND RED             
1 42783U 17036U   19149.92671420  .00000764  00000-0  36271-4 0  9996
2 42783  97.3525 207.9762 0010657 304.9948  55.0288 15.22156870107245
PEGASUS                 
1 42784U 17036V   19149.84383401  .00000867  00000-0  40455-4 0  9990
2 42784  97.3528 208.1045 0010546 304.8450  55.1794 15.22444144107247
DIAMOND GREEN           
1 42785U 17036W   19150.12274991  .00000768  00000-0  36460-4 0  9998
2 42785  97.3528 208.1912 0010547 304.9817  55.0428 15.22157994107269
DIAMOND BLUE            
1 42786U 17036X   19149.72737660  .00000869  00000-0  40847-4 0  9996
2 42786  97.3527 207.8031 0010418 306.9340  53.0942 15.22155549107282
NUDTSAT                 
1 42787U 17036Y   19149.91977309  .00001066  00000-0  47734-4 0  9996
2 42787  97.3540 208.8215 0010016 303.6352  56.3931 15.23380761107139
SUCHAI                  
1 42788U 17036Z   19150.11911821  .00001041  00000-0  47390-4 0  9999
2 42788  97.3533 208.6592 0010090 303.1033  56.9234 15.22850728107373
SKCUBE                  
1 42789U 17036AA  19149.73935378  .00001110  00000-0  50493-4 0  9994
2 42789  97.3529 208.2343 0009974 304.8281  55.2017 15.22754580107236
VZLUSAT-1               
1 42790U 17036AB  19149.70954449  .00001460  00000-0  64304-4 0  9997
2 42790  97.3544 208.6201 0009490 304.1943  55.8394 15.23384171107255
ROBUSTA-1B              
1 42792U 17036AD  19149.73808291  .00001114  00000-0  50428-4 0  9993
2 42792  97.3531 208.3753 0009572 305.9309  54.1039 15.22918052107256
CICERO 6                
1 42793U 17036AE  19149.72706540  .00000797  00000-0  37310-4 0  9998
2 42793  97.3514 208.1677 0008884 308.4279  51.6159 15.22536199107310
D-SAT                   
1 42794U 17036AF  19149.87682449  .00000393  00000-0  39644-4 0  9990
2 42794  97.5412 195.4503 0125917 207.0678 152.3940 14.91083743105389
TOKI                    
1 42820U 98067MU  19123.10626650  .20777511  12651-4  37226-3 0  9990
2 42820  51.6051 142.7539 0005305 301.2009  59.2873 16.47402492104441
MAZAALAI (NUMSAT-1)     
1 42822U 98067MW  19131.43194823  .10190864  12355-4  76666-3 0  9990
2 42822  51.6054 100.7046 0005179 246.5694 204.7401 16.39672911105736
BRAC ONNESHA            
1 42823U 98067MX  19126.46325411  .10871672  12483-4  53364-3 0  9992
2 42823  51.6136 126.1830 0002073 268.7751  91.3478 16.43067843104944
NIGERIAEDUSAT-1         
1 42824U 98067MY  19133.12526632  .12220275  12529-4  51637-3 0  9993
2 42824  51.6091  92.5367 0003545 299.4874 174.6355 16.43636834105973
CORVUS BC2              
1 42846U 17042X   19150.16260470  .00000019  00000-0  71128-5 0  9994
2 42846  97.5682  44.9412 0011042 115.8250 244.4110 14.91965739102101
CORVUS BC1              
1 42847U 17042Y   19149.71477849  .00000299  00000-0  34672-4 0  9996
2 42847  97.5683  44.6143 0010633 116.5835 243.6476 14.92065580102037
MIRATA                  
1 43015U 17073C   19149.72538293  .00000514  00000-0  46099-4 0  9996
2 43015  97.7202  71.7173 0254379 222.6415 135.4804 14.78945646 82346
MAKERSAT 0              
1 43016U 17073D   19149.73626341  .00000358  00000-0  33845-4 0  9991
2 43016  97.7234  71.9254 0256559 222.9225 135.1714 14.78710321 82345
ASTERIA                 
1 43020U 98067NH  19150.13096839  .00026983  00000-0  22585-3 0  9997
2 43020  51.6434  59.5527 0002966  68.9137 291.2178 15.69778336 86788
DELLINGR (RBLE)         
1 43021U 98067NJ  19150.14601100  .00007974  00000-0  92494-4 0  9998
2 43021  51.6389  70.8018 0002885  48.1464 311.9776 15.62818241 86633
AEROCUBE 7B (OCSD B)    
1 43042U 17071F   19150.18053087  .00002763  00000-0  75475-4 0  9997
2 43042  51.6368 148.3006 0005194  81.8050 278.3524 15.41073347 83071
AEROCUBE 7C (OCSD C)    
1 43043U 17071G   19149.85636222  .00002368  00000-0  66083-4 0  9994
2 43043  51.6369 149.8998 0005404  84.2999 275.8602 15.41074244 82998
CHEFSAT                 
1 43044U 17071H   19149.81525473  .00003990  00000-0  96270-4 0  9999
2 43044  51.6373 145.2337 0005222  80.7180 279.4397 15.43645012 83050
ASGARDIA 1              
1 43049U 17071N   19149.22635530  .00002457  00000-0  67907-4 0  9997
2 43049  51.6379 152.4698 0002865  94.9240 265.2072 15.41201346 82895
ISARA                   
1 43050U 17071P   19150.14839108  .00004053  00000-0  99247-4 0  9995
2 43050  51.6366 144.4193 0002702  90.6853 269.4442 15.43139982 83084
PROPCUBE 2 (FAUNA)      
1 43052U 17071R   19149.81917445  .00002582  00000-0  70256-4 0  9994
2 43052  51.6377 148.9459 0002815  92.9012 267.2295 15.41472960 82994
CORVUS BC3              
1 43118U 18004H   19149.76149318  .00000676  00000-0  31936-4 0  9998
2 43118  97.4876 217.1830 0009478 330.0930  29.9763 15.22811641 76446
MICROMAS-2A             
1 43131U 18004W   19149.78419987  .00001436  00000-0  62154-4 0  9998
2 43131  97.4900 217.8478 0008430 332.9008  27.1788 15.24047315 76480
CICERO 7                
1 43143U 18004AJ  19149.74379566  .00001367  00000-0  59067-4 0  9997
2 43143  97.4887 218.0210 0006923 346.1916  13.9131 15.24193378 76491
GOMX-4B                 
1 43196U 18015E   19149.93987424  .00000210  00000-0  11609-4 0  9992
2 43196  97.3864 277.7616 0020018  20.1495 340.0524 15.23925686 73331
GOMX-4A                 
1 43197U 18015F   19150.06987249  .00000274  00000-0  14224-4 0  9990
2 43197  97.3884 277.9141 0019937  21.9130  64.6336 15.24018476 73366
1KUNS-PF                
1 43466U 98067NP  19150.06592577  .00019242  00000-0  19312-3 0  9997
2 43466  51.6378  73.9949 0002002  76.3960 283.7258 15.65517199 59841
UBAKUSAT                
1 43467U 98067NQ  19150.16238003  .00012527  00000-0  14415-3 0  9998
2 43467  51.6375  76.8863 0002622  25.0645 335.0476 15.62409902 59825
BATSU-CS1 (IRAZU)       
1 43468U 98067NR  19149.26043148  .00025026  00000-0  22532-3 0  9999
2 43468  51.6368  75.3481 0002252  78.8738 281.2511 15.68041560159748
CUBERRT                 
1 43546U 98067NU  19150.15449183  .00019257  00000-0  20777-3 0  9993
2 43546  51.6384  78.3305 0006370  63.9890 296.1760 15.63660717 49936
TEMPEST-D               
1 43547U 98067NV  19150.03424978  .00003607  00000-0  54447-4 0  9990
2 43547  51.6393  85.0261 0006434  51.8168 308.3403 15.57666035 49514
